SARSAT 7 (NOAA 15)      
1 25338U 98030A   18021.52881283  .00000014  00000-0  24861-4 0  9990
2 25338  98.7766  37.8079 0009612 295.5751  64.4434 14.25836018 24113
GPS BIIR-07             
1 26690U 01004A   18021.55850476  .00000034  00000-0  00000+0 0  9996
2 26690  53.0814 148.7025 0186365 259.3885 158.3829  2.00565695124395
METEOSAT-8 (MSG-1)      
1 27509U 02040B   18020.71102232  .00000142  00000-0  00000-0 0  9995
2 27509   5.2147  57.5227 0001399 335.0795  24.9792  1.00263613 56484
GPS BIIR-08             
1 27663U 03005A   18021.17896394 -.00000050  00000-0  00000+0 0  9996
2 27663  56.6181 336.3924 0096529  25.0291 211.7217  2.00576007109742
GPS BIIR-11             
1 28190U 04009A   18021.38986682 -.00000041  00000-0  00000+0 0  9990
2 28190  56.1124  37.2915 0095007  63.1510 119.3885  2.00561388101421
GPS BIIR-12             
1 28361U 04023A   18021.39885686  .00000080  00000-0  00000+0 0  9991
2 28361  54.0772 211.0679 0120701 223.0738 238.5254  2.00570642 99518
GPS BIIR-13             
1 28474U 04045A   18021.25225838 -.00000025  00000-0  00000+0 0  9992
2 28474  54.3685  88.7316 0178765 250.9251 108.4343  2.00564480 96871
SARSAT 10 (NOAA 18)     
1 28654U 05018A   18021.60505414 -.00000016  00000-0  16826-4 0  9991
2 28654  99.1633  53.9438 0014513 175.6791 184.4508 14.12364447652997
GPS BIIR-14M            
1 28874U 05038A   18021.33362458 -.00000042  00000-0  00000+0 0  9997
2 28874  56.2602  34.5854 0125693 256.9570 265.3317  2.00555317 90274
MSG-2                   
1 28912U 05049B   18021.26808079  .00000064  00000-0  00000-0 0  9992
2 28912   2.6313  71.6233 0002770 249.5105 265.4299  1.00265477 44303
GOES 13                 
1 29155U 06018A   18020.85378719 -.00000277  00000-0  00000-0 0  9993
2 29155   0.3015 103.2334 0011179  94.9825 161.7297  1.00469059 42749
SARSAT 11 (METOP-A)     
1 29499U 06044A   18021.57988694 -.00000004  00000-0  18017-4 0  9991
2 29499  98.6493  82.2059 0000182 145.1054 353.0014 14.21514947583988
GPS BIIR-16M            
1 29601U 06052A   18020.66327218 -.00000051  00000-0  00000+0 0  9993
2 29601  56.5928 335.3302 0066554  51.0630 309.5330  2.00565954 81890
GPS BIIR-17M            
1 32260U 07047A   18020.97623979  .00000076  00000-0  00000+0 0  9996
2 32260  53.2024 207.2390 0099923  36.8936 323.7974  2.00562337 75286
GPS BIIR-18M            
1 32384U 07062A   18021.53151409 -.00000041  00000-0  00000-0 0  9991
2 32384  56.3302  35.1752 0003386  12.2629 164.6173  2.00555425 74003
SARSAT 12 (NOAA 19)     
1 33591U 09005A   18021.55721906  .00000107  00000-0  83523-4 0  9995
2 33591  99.1239 356.8181 0014422  22.3315 337.8481 14.12247707461210
GOES 14                 
1 35491U 09033A   18020.95545140 -.00000090  00000-0  00000-0 0  9991
2 35491   0.0685 262.5750 0009544 340.3323 116.9806  1.00271761 31381
GOES 15                 
1 36411U 10008A   18021.04000837  .00000092  00000-0  00000-0 0  9999
2 36411   0.0757 254.4282 0001676 345.5599 119.9806  1.00259954 28912
GLONASS-K 1             
1 37372U 11009A   18021.20437508 -.00000011  00000-0  00000+0 0  9996
2 37372  65.5064  57.2691 0009514 237.6958 257.1902  2.13107656 53699
GPS BIIF-2              
1 37753U 11036A   18021.62698266 -.00000021  00000-0  00000-0 0  9997
2 37753  55.5705  92.0658 0071237  33.8863 357.8670  2.00563458 47735
GSAT0101 (GALILEO-PFM)  
1 37846U 11060A   18014.38444668 -.00000055  00000-0  00000+0 0  9993
2 37846  55.9882  65.8058 0003996 310.6491  49.3866  1.70473581 38812
GSAT0102 (GALILEO-FM2)  
1 37847U 11060B   18019.00323880 -.00000032  00000-0  00000+0 0  9995
2 37847  55.9925  65.6759 0005688 297.5360  62.3423  1.70475877 38886
LUCH 5A                 
1 37951U 11074B   18021.79848506 -.00000043  00000-0  00000+0 0  9994
2 37951   1.6915 160.7797 0004655 146.2581 268.3613  1.00271901 22423
MSG-3                   
1 38552U 12035B   18020.66448600  .00000004  00000-0  00000-0 0  9993
2 38552   0.8615  19.7927 0001834 253.4930  86.6796  1.00273123 20117
SARSAT 13 (METOP-B)     
1 38771U 12049A   18021.62340090 -.00000000  00000-0  19829-4 0  9992
2 38771  98.6942  83.4528 0001205  39.9166 116.6796 14.21493344277319
GPS BIIF-3              
1 38833U 12053A   18021.07285605  .00000017  00000-0  00000+0 0  9998
2 38833  54.0238 269.5812 0065869  27.5806 332.8471  2.00564820 38785
GSAT0103 (GALILEO-FM3)  
1 38857U 12055A   18019.70540166  .00000065  00000-0  00000-0 0  9993
2 38857  54.9073 186.0417 0001791 216.9900 142.9621  1.70473756 32823
GSAT0104 (GALILEO-FM4)  
1 38858U 12055B   18018.46647784  .00000063  00000-0  00000+0 0  9997
2 38858  54.9029 186.0797 0000838 181.8201 178.1445  1.70473833 32743
GPS BIIF-4              
1 39166U 13023A   18021.42550322 -.00000044  00000-0  00000+0 0  9997
2 39166  55.9622  31.5259 0052900  17.7080 342.5117  2.00563482 34325
INSAT-3D                
1 39216U 13038B   18020.43933451 -.00000153  00000-0  00000-0 0  9999
2 39216   0.1290 270.4373 0001293  30.5518  58.9829  1.00273345 16348
GPS BIIF-5              
1 39533U 14008A   18021.42275847  .00000008  00000-0  00000-0 0  9995
2 39533  54.1725 274.8953 0030534 186.2768 173.7608  2.00574257 28150
LUCH 5V                 
1 39727U 14023A   18021.49036713 -.00000262  00000-0  00000-0 0  9994
2 39727   2.2728 299.1206 0003829  23.7591  69.0824  1.00267391531758
GPS BIIF-6              
1 39741U 14026A   18021.21272942 -.00000021  00000-0  00000+0 0  9991
2 39741  55.5552  91.6048 0012318 284.1262  75.7997  2.00577250 26966
GPS BIIF-7              
1 40105U 14045A   18021.30096926  .00000081  00000-0  00000+0 0  9999
2 40105  54.6021 211.0969 0009413 102.0463 258.0748  2.00560686 25410
GSAT0201 (GALILEO 5)    
1 40128U 14050A   18021.35868607 -.00000065  00000-0  00000+0 0  9991
2 40128  50.4164  36.4674 1638435  70.8810 306.1846  1.85519946 23327
GSAT0202 (GALILEO 6)    
1 40129U 14050B   18021.08659037 -.00000066  00000-0  00000+0 0  9998
2 40129  50.4672  35.4831 1638855  71.8276 305.3684  1.85520538 23510
GPS BIIF-8              
1 40294U 14068A   18021.16902491  .00000040  00000-0  00000+0 0  9995
2 40294  55.0390 151.8276 0010741  20.7508 339.2671  2.00574997 23636
GLONASS-K 2             
1 40315U 14075A   18021.37341544 -.00000008  00000-0  00000+0 0  9991
2 40315  64.2983 297.6875 0014970 211.9253 170.7621  2.13098414 24467
GPS BIIF-9              
1 40534U 15013A   18019.81315669 -.00000056  00000-0  00000+0 0  9995
2 40534  54.8368 330.9040 0025861 353.5477   6.4261  2.00572665 20674
GSAT0203 (GALILEO 7)    
1 40544U 15017A   18017.09672437 -.00000040  00000-0  00000+0 0  9990
2 40544  55.7801  65.9891 0004666 251.5329 108.4955  1.70475658 17465
GSAT0204 (GALILEO 8)    
1 40545U 15017B   18020.39906282 -.00000030  00000-0  00000+0 0  9995
2 40545  55.7890  65.9083 0002556 233.3413 126.7127  1.70475708 17533
GPS BIIF-10             
1 40730U 15033A   18021.46984043 -.00000045  00000-0  00000+0 0  9995
2 40730  55.4944  31.0966 0033632 323.2213  36.5831  2.00554881 18463
GSAT0205 (GALILEO 9)    
1 40889U 15045A   18015.94792740 -.00000052  00000-0  00000+0 0  9998
2 40889  56.8565 306.3298 0003935 354.9442   5.0707  1.70474437 14605
GSAT0206 (GALILEO 10)   
1 40890U 15045B   18019.10074679 -.00000035  00000-0  00000+0 0  9997
2 40890  56.8530 306.2408 0002486 344.2970  15.7317  1.70474388 14687
GPS BIIF-11             
1 41019U 15062A   18021.02131480  .00000038  00000-0  00000+0 0  9990
2 41019  55.0457 151.6307 0032627 200.2860 159.5590  2.00564037 16271
GSAT0209 (GALILEO 12)   
1 41174U 15079A   18020.44552298  .00000067  00000-0  00000-0 0  9992
2 41174  54.9203 185.7110 0002985 309.7441  50.1939  1.70473774 12614
GSAT0208 (GALILEO 11)   
1 41175U 15079B   18016.55937654  .00000062  00000-0  00000+0 0  9997
2 41175  54.9186 185.8191 0002066 317.1385  42.8186  1.70473757 12966
GPS BIIF-12             
1 41328U 16007A   18021.11029976  .00000080  00000-0  00000+0 0  9996
2 41328  54.8554 211.3541 0017104 212.2946 147.6170  2.00568859 14337
GSAT0211 (GALILEO 14)   
1 41549U 16030A   18019.02664272 -.00000035  00000-0  00000-0 0  9990
2 41549  56.9929 306.0099 0003637 308.0989  51.9048  1.70474208 10313
GSAT0210 (GALILEO 13)   
1 41550U 16030B   18019.90645618 -.00000031  00000-0  00000+0 0  9997
2 41550  56.9919 305.9880 0002829 279.9171  80.0910  1.70474196 10318
GSAT0207 (GALILEO 15)   
1 41859U 16069A   18020.73907172  .00000068  00000-0  00000-0 0  9990
2 41859  54.5794 186.2869 0002514 289.2848  70.6534  1.70473674  7232
GSAT0212 (GALILEO 16)   
1 41860U 16069B   18020.59245082  .00000067  00000-0  00000-0 0  9990
2 41860  54.5768 186.2915 0001915 330.2238  29.7305  1.70473661  7328
GSAT0213 (GALILEO 17)   
1 41861U 16069C   18020.37229403  .00000066  00000-0  00000-0 0  9995
2 41861  54.5792 186.2998 0001700 239.0903 120.8579  1.70473759  7339
GSAT0214 (GALILEO 18)   
1 41862U 16069D   18019.93245789  .00000065  00000-0  00000-0 0  9990
2 41862  54.5774 186.3087 0000969 236.7688 123.1866  1.70473717  7306
GOES 16                 
1 41866U 16071A   18020.87502199 -.00000245  00000-0  00000-0 0  9994
2 41866   0.0110  93.9336 0001049 286.8759 339.1948  1.00268844  4331
